      2.10          N: GNSS NAV DATA                        RINEX VERSION / TYPE
fic2rin                                 05/26/2020 00:17:13 PGM / RUN BY / DATE
                                                            END OF HEADER
16 20  5 26  0  0  0.0-1.625744625926e-04-4.547473508865e-12 0.000000000000e+00
    7.800000000000e+01 1.172500000000e+02 3.849446059165e-09 4.658177549050e-01
    6.243586540222e-06 1.148432889022e-02 7.538124918938e-06 5.153771118164e+03
    1.728000000000e+05-5.587935447693e-08 1.061946045150e+00 2.440065145493e-07
    9.785511243764e-01 2.439375000000e+02 6.340600210192e-01-7.877470985429e-09
    1.314340461842e-10 1.000000000000e+00 2.107000000000e+03 0.000000000000e+00
    2.400000000000e+00 0.000000000000e+00-1.071020960808e-08 7.800000000000e+01
    1.656000000000e+05 4.000000000000e+00
 8 20  5 26  0  0  0.0-3.527244552970e-05-1.364242052659e-12 0.000000000000e+00
    7.600000000000e+01 2.228125000000e+01 4.544832167645e-09-2.526623574528e-01
    1.236796379089e-06 5.340727162547e-03 1.026317477226e-06 5.153669563293e+03
    1.728000000000e+05 6.332993507385e-08 2.005211733209e+00-1.303851604462e-08
    9.694803300843e-01 3.606562500000e+02-7.515967945662e-02-8.395349700013e-09
    1.535778257043e-10 1.000000000000e+00 2.107000000000e+03 0.000000000000e+00
    2.400000000000e+00 0.000000000000e+00 5.122274160385e-09 7.600000000000e+01
    1.656000000000e+05 4.000000000000e+00
27 20  5 26  0  0  0.0-3.034621477127e-04-1.011812855722e-11 0.000000000000e+00
    8.500000000000e+01 1.962500000000e+01 4.429470219500e-09-4.117352651693e-01
    1.208856701851e-06 8.282370166853e-03 1.287087798119e-06 5.153662324905e+03
    1.728000000000e+05 5.401670932770e-08 2.019495756036e+00 1.136213541031e-07
    9.779083488937e-01 3.635312500000e+02 5.635572062597e-01-8.369277185417e-09
    1.357199389945e-10 1.000000000000e+00 2.107000000000e+03 0.000000000000e+00
    2.400000000000e+00 0.000000000000e+00 1.862645149231e-09 8.500000000000e+01
    1.656000000000e+05 4.000000000000e+00
30 20  5 26  0  0  0.0-2.279654145241e-04-8.071765478235e-12 0.000000000000e+00
    5.100000000000e+01 1.837500000000e+01 4.815914887900e-09 2.966666186035e+00
    8.866190910339e-07 4.633652395569e-03 9.454786777496e-06 5.153646415710e+03
    1.728000000000e+05-7.450580596924e-08-4.004606579367e-02 3.725290298462e-09
    9.388984211622e-01 1.856562500000e+02-2.869403160285e+00-7.996761668650e-09
   -5.375223899651e-10 1.000000000000e+00 2.107000000000e+03 0.000000000000e+00
    2.400000000000e+00 0.000000000000e+00 3.725290298462e-09 5.100000000000e+01
    1.656000000000e+05 4.000000000000e+00
19 20  5 26  0  0  0.0-1.538973301649e-04 5.115907697473e-12 0.000000000000e+00
    6.300000000000e+01-1.315625000000e+01 4.238747989439e-09 2.183418026525e+00
   -8.028000593185e-07 9.439025889151e-03 5.997717380524e-07 5.153688508987e+03
    1.728000000000e+05 1.415610313416e-07 2.123560638413e+00-8.381903171539e-08
    9.820071951928e-01 3.789375000000e+02 1.621604940458e+00-8.035334703943e-09
    1.892935991239e-11 1.000000000000e+00 2.107000000000e+03 0.000000000000e+00
    2.400000000000e+00 0.000000000000e+00-1.536682248116e-08 6.300000000000e+01
    1.656000000000e+05 4.000000000000e+00
11 20  5 26  0  0  0.0-2.670199610293e-04 1.068656274583e-11 0.000000000000e+00
    9.700000000000e+01-8.865625000000e+01 5.648806724045e-09-3.039632358809e+00
   -4.576519131660e-06 1.595626480412e-02 1.300126314163e-06 5.153719156265e+03
    1.728000000000e+05 1.695007085800e-07 2.600759686777e+00 2.346932888031e-07
    9.128873880754e-01 3.242500000000e+02 1.984701317451e+00-8.546427421578e-09
   -3.857303529318e-11 1.000000000000e+00 2.107000000000e+03 0.000000000000e+00
    3.400000000000e+00 0.000000000000e+00-1.257285475731e-08 9.700000000000e+01
    1.656000000000e+05 4.000000000000e+00
13 20  5 26  0  0  0.0 1.295423135161e-05 3.069544618484e-12 0.000000000000e+00
    6.400000000000e+01-5.593750000000e+00 4.705195990299e-09-1.120292689464e+00
   -4.004687070847e-07 4.114859038964e-03 5.770474672318e-06 5.153650119781e+03
    1.728000000000e+05 4.470348358154e-08-9.938283895816e-01 1.359730958939e-07
    9.675477962836e-01 2.712812500000e+02 1.080742887908e+00-8.004976296537e-09
   -2.514390448740e-10 1.000000000000e+00 2.107000000000e+03 0.000000000000e+00
    2.400000000000e+00 0.000000000000e+00-1.117587089539e-08 6.400000000000e+01
    1.656000000000e+05 4.000000000000e+00
12 20  5 26  0  0  0.0 1.136795617640e-04-4.433786671143e-12 0.000000000000e+00
    4.600000000000e+01 1.357812500000e+02 3.740512950236e-09 2.303971264005e+00
    6.927177309990e-06 8.080676780082e-03 7.215887308121e-06 5.153695693970e+03
    1.728000000000e+05 8.754432201385e-08 1.043080628106e+00-1.322478055954e-07
    9.783344237843e-01 2.480937500000e+02 1.156147255042e+00-7.656033190227e-09
    2.042942239602e-10 1.000000000000e+00 2.107000000000e+03 0.000000000000e+00
    2.400000000000e+00 0.000000000000e+00-1.210719347000e-08 4.600000000000e+01
    1.656000000000e+05 4.000000000000e+00
20 20  5 26  0  0  0.0 5.276282317936e-04-1.136868377216e-13 0.000000000000e+00
    9.400000000000e+01-5.512500000000e+01 4.955206404236e-09-3.071948222105e+00
   -2.730637788773e-06 5.127125186846e-03 1.019239425659e-05 5.153652673721e+03
    1.728000000000e+05-8.754432201385e-08-2.301912998247e+00 8.568167686462e-08
    9.339654087338e-01 1.692500000000e+02 2.660255102143e+00-7.988189883030e-09
    4.271606500985e-10 1.000000000000e+00 2.107000000000e+03 0.000000000000e+00
    2.400000000000e+00 0.000000000000e+00-8.847564458847e-09 9.400000000000e+01
    1.656000000000e+05 4.000000000000e+00
17 20  5 26  0  0  0.0 2.705715596676e-04 6.025402399246e-12 0.000000000000e+00
    7.200000000000e+01-1.531250000000e+00 4.328394580722e-09-4.732550256114e-01
   -1.117587089539e-07 1.322622771841e-02 1.464039087296e-06 5.153702463150e+03
    1.728000000000e+05-1.322478055954e-07 2.077905557450e+00 8.009374141693e-08
    9.837961655277e-01 3.687812500000e+02-1.642480139228e+00-8.413207586723e-09
    1.382200431339e-10 1.000000000000e+00 2.107000000000e+03 0.000000000000e+00
    2.400000000000e+00 0.000000000000e+00-1.071020960808e-08 7.200000000000e+01
    1.656000000000e+05 4.000000000000e+00
32 20  5 26  0  0  0.0 2.877255901694e-04 7.389644451905e-12 0.000000000000e+00
    1.070000000000e+02 1.437500000000e+00 5.014494588113e-09 2.968030665819e-01
    1.434236764908e-07 3.990981844254e-03 5.621463060379e-06 5.153706447601e+03
    1.728000000000e+05 1.862645149231e-08-1.128336487469e+00 6.332993507385e-08
    9.564459889345e-01 2.681562500000e+02-2.439507156934e+00-8.177483482154e-09
   -4.357324357192e-11 1.000000000000e+00 2.107000000000e+03 0.000000000000e+00
    2.400000000000e+00 0.000000000000e+00 4.656612873077e-10 1.070000000000e+02
    1.656000000000e+05 4.000000000000e+00
28 20  5 26  0  0  0.0 7.142857648432e-04-3.296918293927e-12 0.000000000000e+00
    6.200000000000e+01 1.082812500000e+02 3.973736950666e-09 3.454554955280e-01
    5.660578608513e-06 1.840862690005e-02 7.102265954018e-06 5.153671243668e+03
    1.728000000000e+05-2.142041921616e-07 1.065681596225e+00-1.918524503708e-07
    9.775697842997e-01 2.531562500000e+02-1.406455357448e+00-8.155339702633e-09
    1.135761594744e-10 1.000000000000e+00 2.107000000000e+03 0.000000000000e+00
    2.400000000000e+00 0.000000000000e+00-1.117587089539e-08 6.200000000000e+01
    1.656000000000e+05 4.000000000000e+00
18 20  5 26  0  0  0.0 2.010464668274e-04 1.159605744760e-11 0.000000000000e+00
    2.230000000000e+02-1.334062500000e+02 4.450899683552e-09-1.946210395018e+00
   -6.841495633125e-06 4.968515131623e-04 6.763264536858e-06 5.153729413986e+03
    1.728000000000e+05-7.450580596924e-09 3.092302472822e+00 1.490116119385e-08
    9.640960659452e-01 2.544375000000e+02 2.565131520938e+00-8.034620388475e-09
   -9.571827276455e-11 1.000000000000e+00 2.107000000000e+03 0.000000000000e+00
    2.400000000000e+00 0.000000000000e+00-7.916241884232e-09 9.910000000000e+02
    1.656000000000e+05 4.000000000000e+00
23 20  5 26  0  0  0.0-1.112003810704e-04 3.183231456205e-12 0.000000000000e+00
    8.500000000000e+01 3.718750000000e+00 5.242004064796e-09-2.485509027016e+00
    9.313225746155e-08 1.423457940109e-02 5.289912223816e-06 5.155131528854e+03
    1.728000000000e+05 2.328306436539e-07-1.145248733327e+00-8.009374141693e-08
    9.431350816589e-01 2.639687500000e+02-2.184508687544e+00-8.119981086948e-09
    1.000041655749e-10 1.000000000000e+00 2.107000000000e+03 0.000000000000e+00
    3.400000000000e+00 6.300000000000e+01-2.048909664154e-08 8.500000000000e+01
    1.656000000000e+05 4.000000000000e+00
 4 20  5 26  0  0  0.0-9.412737563252e-05-4.888534022029e-12 0.000000000000e+00
    2.050000000000e+02 1.687500000000e+00 4.822343727116e-09-1.423630878820e+00
    3.725290298462e-09 7.497565820813e-04 5.858018994331e-06 5.153671810150e+03
    1.728000000000e+05-1.117587089539e-08-1.088805224011e+00-3.725290298462e-09
    9.596224917172e-01 2.670312500000e+02-2.589177994022e+00-8.057121325729e-09
   -6.535986535788e-11 1.000000000000e+00 2.107000000000e+03 0.000000000000e+00
    2.400000000000e+00 0.000000000000e+00-4.190951585770e-09 9.730000000000e+02
    1.660800000000e+05 4.000000000000e+00
23 20  5 25 23 59 44.0-1.112013123930e-04 3.183231456205e-12 0.000000000000e+00
    1.000000000000e+00 3.718750000000e+00 5.242004064796e-09-2.487840772143e+00
    9.313225746155e-08 1.423457695637e-02 5.289912223816e-06 5.155131521225e+03
    1.727840000000e+05 2.346932888031e-07-1.145248606053e+00-8.009374141693e-08
    9.431351226207e-01 2.639687500000e+02-2.184508653897e+00-8.119623929214e-09
    1.000041655749e-10 1.000000000000e+00 2.107000000000e+03 0.000000000000e+00
    2.400000000000e+00 6.300000000000e+01-2.048909664154e-08 1.000000000000e+00
    1.685700000000e+05 4.000000000000e+00
